{
"type": "FeatureCollection",
"name": "farms_overview",
"crs": { "type": "name", "properties": { "name": "urn:ogc:def:crs:OGC:1.3:CRS84" } },
"features": [
{ "type": "Feature", "properties": { "site_id": "data/raw/naip_tiles_pc_4band_v2/site_0342.tif", "farm_name": "Jeff Green/Jeremiah Farm", "county": "Somerset", "species_group": "broiler", "animal_type": "chickens_not_laying_hens", "headcount": 48000, "buildings": 19, "floor_area_m2": 33019.0, "registry_point_distance_m": 1269.0, "lat": 38.040294, "lon": -75.736111, "maps_url": "https://www.google.com/maps/@38.040294,-75.736111,600m/data=!3m1!1e3" }, "geometry": { "type": "Point", "coordinates": [ -75.73611075933988, 38.040293899926759 ] } },
{ "type": "Feature", "properties": { "site_id": "data/raw/naip_tiles_pc_4band_v2/site_0237.tif", "farm_name": "Newton Bui/Vina Cao", "county": "Worcester", "species_group": "broiler", "animal_type": "chickens_not_laying_hens", "headcount": 354500, "buildings": 18, "floor_area_m2": 31065.0, "registry_point_distance_m": 1012.0, "lat": 38.108243, "lon": -75.561607, "maps_url": "https://www.google.com/maps/@38.108243,-75.561607,600m/data=!3m1!1e3" }, "geometry": { "type": "Point", "coordinates": [ -75.56160745359152, 38.108242684021668 ] } },
{ "type": "Feature", "properties": { "site_id": "data/raw/naip_tiles_pc_4band_v2/site_0039.tif", "farm_name": "Alan Butler/A&P Farm", "county": "Somerset", "species_group": "broiler", "animal_type": "chickens_not_laying_hens", "headcount": 114000, "buildings": 12, "floor_area_m2": 23297.0, "registry_point_distance_m": 354.0, "lat": 38.004119, "lon": -75.638983, "maps_url": "https://www.google.com/maps/@38.004119,-75.638983,600m/data=!3m1!1e3" }, "geometry": { "type": "Point", "coordinates": [ -75.638983412264167, 38.00411939617787 ] } },
{ "type": "Feature", "properties": { "site_id": "data/raw/naip_tiles_pc_4band_v2/site_0205.tif", "farm_name": "Luu Hoang/Golden Chicken Farm, LLC", "county": "Somerset", "species_group": "broiler", "animal_type": "chickens_not_laying_hens", "headcount": 200000, "buildings": 11, "floor_area_m2": 20854.0, "registry_point_distance_m": 567.0, "lat": 38.144014, "lon": -75.733736, "maps_url": "https://www.google.com/maps/@38.144014,-75.733736,600m/data=!3m1!1e3" }, "geometry": { "type": "Point", "coordinates": [ -75.733736365101763, 38.144013976599929 ] } },
{ "type": "Feature", "properties": { "site_id": "data/raw/naip_tiles_pc_4band_v2/site_0046.tif", "farm_name": "Hrang LLC", "county": "Somerset", "species_group": "broiler", "animal_type": "chickens_not_laying_hens", "headcount": 170000, "buildings": 11, "floor_area_m2": 23644.0, "registry_point_distance_m": 137.0, "lat": 38.179222, "lon": -75.796652, "maps_url": "https://www.google.com/maps/@38.179222,-75.796652,600m/data=!3m1!1e3" }, "geometry": { "type": "Point", "coordinates": [ -75.796651787187272, 38.179221535686118 ] } },
{ "type": "Feature", "properties": { "site_id": "data/raw/naip_tiles_pc_4band_v2/site_0044.tif", "farm_name": "Lich Cao/LC Farm", "county": "Somerset", "species_group": "broiler", "animal_type": "chickens_not_laying_hens", "headcount": 180000, "buildings": 10, "floor_area_m2": 16434.0, "registry_point_distance_m": 679.0, "lat": 38.008468, "lon": -75.763983, "maps_url": "https://www.google.com/maps/@38.008468,-75.763983,600m/data=!3m1!1e3" }, "geometry": { "type": "Point", "coordinates": [ -75.76398347163078, 38.008467773690292 ] } },
{ "type": "Feature", "properties": { "site_id": "data/raw/naip_tiles_pc_4band_v2/site_0035.tif", "farm_name": "Bach Farm LLC/ Hung Duy Bach", "county": "Somerset", "species_group": "broiler", "animal_type": "chickens_not_laying_hens", "headcount": 111000, "buildings": 10, "floor_area_m2": 15528.0, "registry_point_distance_m": 3384.0, "lat": 38.253764, "lon": -75.759918, "maps_url": "https://www.google.com/maps/@38.253764,-75.759918,600m/data=!3m1!1e3" }, "geometry": { "type": "Point", "coordinates": [ -75.759918053020996, 38.253764185853932 ] } },
{ "type": "Feature", "properties": { "site_id": "data/raw/naip_tiles_pc_4band_v2/site_0208.tif", "farm_name": "Tu Do/Chelsea Farm", "county": "Somerset", "species_group": "broiler", "animal_type": "chickens_not_laying_hens", "headcount": 270000, "buildings": 9, "floor_area_m2": 20383.0, "registry_point_distance_m": 190.0, "lat": 38.162324, "lon": -75.634855, "maps_url": "https://www.google.com/maps/@38.162324,-75.634855,600m/data=!3m1!1e3" }, "geometry": { "type": "Point", "coordinates": [ -75.634855055740744, 38.162324492411535 ] } },
{ "type": "Feature", "properties": { "site_id": "data/raw/naip_tiles_pc_4band_v2/site_0203.tif", "farm_name": "Bawi Hlun/ Chan UK", "county": "Somerset", "species_group": "unknown", "animal_type": "unknown", "headcount": 0, "buildings": 9, "floor_area_m2": 15929.0, "registry_point_distance_m": 165.0, "lat": 38.25443, "lon": -75.648401, "maps_url": "https://www.google.com/maps/@38.25443,-75.648401,600m/data=!3m1!1e3" }, "geometry": { "type": "Point", "coordinates": [ -75.648400896215094, 38.254430403243767 ] } },
{ "type": "Feature", "properties": { "site_id": "data/raw/naip_tiles_pc_4band_v2/site_0273.tif", "farm_name": "Moon Farm, LLC/ Hassan Waheed", "county": "Somerset", "species_group": "broiler", "animal_type": "chickens_not_laying_hens", "headcount": 320000, "buildings": 9, "floor_area_m2": 18892.0, "registry_point_distance_m": 136.0, "lat": 38.151252, "lon": -75.58144, "maps_url": "https://www.google.com/maps/@38.151252,-75.58144,600m/data=!3m1!1e3" }, "geometry": { "type": "Point", "coordinates": [ -75.581439985252018, 38.151251891539438 ] } },
{ "type": "Feature", "properties": { "site_id": "data/raw/naip_tiles_pc_4band_v2/site_0185.tif", "farm_name": "William Cottman/Cottman Farm", "county": "Somerset", "species_group": "broiler", "animal_type": "chickens_not_laying_hens", "headcount": 86000, "buildings": 9, "floor_area_m2": 13348.0, "registry_point_distance_m": 828.0, "lat": 38.15115, "lon": -75.603507, "maps_url": "https://www.google.com/maps/@38.15115,-75.603507,600m/data=!3m1!1e3" }, "geometry": { "type": "Point", "coordinates": [ -75.603507380144222, 38.151150332635183 ] } },
{ "type": "Feature", "properties": { "site_id": "data/raw/naip_tiles_pc_4band_v2/site_0040.tif", "farm_name": "Vy Tran, LLC/ Vy Tran", "county": "Somerset", "species_group": "broiler", "animal_type": "chickens_not_laying_hens", "headcount": 170000, "buildings": 9, "floor_area_m2": 19344.0, "registry_point_distance_m": 275.0, "lat": 38.214049, "lon": -75.650973, "maps_url": "https://www.google.com/maps/@38.214049,-75.650973,600m/data=!3m1!1e3" }, "geometry": { "type": "Point", "coordinates": [ -75.650972931242833, 38.214048807002349 ] } },
{ "type": "Feature", "properties": { "site_id": "data/raw/naip_tiles_pc_4band_v2/site_0394.tif", "farm_name": "Mohammad J. Sheikh/Kun Farm LLC", "county": "Somerset", "species_group": "broiler", "animal_type": "chickens_not_laying_hens", "headcount": 117200, "buildings": 9, "floor_area_m2": 12439.0, "registry_point_distance_m": 1740.0, "lat": 38.262631, "lon": -75.69013, "maps_url": "https://www.google.com/maps/@38.262631,-75.69013,600m/data=!3m1!1e3" }, "geometry": { "type": "Point", "coordinates": [ -75.690129844039248, 38.262631271425299 ] } },
{ "type": "Feature", "properties": { "site_id": "data/raw/naip_tiles_pc_4band_v2/site_0239.tif", "farm_name": "Justin Humphreys/Humphreys Farms, LLC/Somerset Farm", "county": "Somerset", "species_group": "broiler", "animal_type": "chickens_not_laying_hens", "headcount": 122000, "buildings": 8, "floor_area_m2": 16881.0, "registry_point_distance_m": 1438.0, "lat": 38.132119, "lon": -75.675948, "maps_url": "https://www.google.com/maps/@38.132119,-75.675948,600m/data=!3m1!1e3" }, "geometry": { "type": "Point", "coordinates": [ -75.675948064132172, 38.132119276853068 ] } },
{ "type": "Feature", "properties": { "site_id": "data/raw/naip_tiles_pc_4band_v2/site_0231.tif", "farm_name": "Samuel W. Hall/East Ridge Farm", "county": "Somerset", "species_group": "broiler", "animal_type": "chickens_not_laying_hens", "headcount": 56300, "buildings": 8, "floor_area_m2": 7885.0, "registry_point_distance_m": 319.0, "lat": 38.214243, "lon": -75.717051, "maps_url": "https://www.google.com/maps/@38.214243,-75.717051,600m/data=!3m1!1e3" }, "geometry": { "type": "Point", "coordinates": [ -75.717051122106568, 38.214243311907637 ] } },
{ "type": "Feature", "properties": { "site_id": "data/raw/naip_tiles_pc_4band_v2/site_0281.tif", "farm_name": "Liem Nguyen", "county": "Wicomico", "species_group": "broiler", "animal_type": "chickens_not_laying_hens", "headcount": 183000, "buildings": 8, "floor_area_m2": 19709.0, "registry_point_distance_m": 306.0, "lat": 38.219462, "lon": -75.662417, "maps_url": "https://www.google.com/maps/@38.219462,-75.662417,600m/data=!3m1!1e3" }, "geometry": { "type": "Point", "coordinates": [ -75.662417103450437, 38.219462455083558 ] } },
{ "type": "Feature", "properties": { "site_id": "data/raw/naip_tiles_pc_4band_v2/site_0186.tif", "farm_name": "Ramsay Family Farm, Inc.", "county": "Somerset", "species_group": "broiler", "animal_type": "chickens_not_laying_hens", "headcount": 117500, "buildings": 8, "floor_area_m2": 11081.0, "registry_point_distance_m": 1277.0, "lat": 38.042505, "lon": -75.665839, "maps_url": "https://www.google.com/maps/@38.042505,-75.665839,600m/data=!3m1!1e3" }, "geometry": { "type": "Point", "coordinates": [ -75.665838542835317, 38.042504965297425 ] } },
{ "type": "Feature", "properties": { "site_id": "data/raw/naip_tiles_pc_4band_v2/site_0021.tif", "farm_name": "Cobb-Heritage, LLC Farms #15 &17", "county": "Somerset", "species_group": "broiler", "animal_type": "chickens_not_laying_hens", "headcount": 36000, "buildings": 8, "floor_area_m2": 7755.0, "registry_point_distance_m": 976.0, "lat": 38.189744, "lon": -75.732743, "maps_url": "https://www.google.com/maps/@38.189744,-75.732743,600m/data=!3m1!1e3" }, "geometry": { "type": "Point", "coordinates": [ -75.732743081322752, 38.18974367940254 ] } },
{ "type": "Feature", "properties": { "site_id": "data/raw/naip_tiles_pc_4band_v2/site_0048.tif", "farm_name": "Peter and Joseph Farm Inc. c/o Peter Tran", "county": "Somerset", "species_group": "broiler", "animal_type": "chickens_not_laying_hens", "headcount": 238400, "buildings": 8, "floor_area_m2": 18120.0, "registry_point_distance_m": 177.0, "lat": 38.219395, "lon": -75.651952, "maps_url": "https://www.google.com/maps/@38.219395,-75.651952,600m/data=!3m1!1e3" }, "geometry": { "type": "Point", "coordinates": [ -75.651951979752511, 38.219394961371769 ] } },
{ "type": "Feature", "properties": { "site_id": "data/raw/naip_tiles_pc_4band_v2/site_0393.tif", "farm_name": "Tiny Angels LLC", "county": "Somerset", "species_group": "broiler", "animal_type": "chickens_not_laying_hens", "headcount": 270000, "buildings": 7, "floor_area_m2": 12807.0, "registry_point_distance_m": 302.0, "lat": 38.150458, "lon": -75.654006, "maps_url": "https://www.google.com/maps/@38.150458,-75.654006,600m/data=!3m1!1e3" }, "geometry": { "type": "Point", "coordinates": [ -75.654006043951426, 38.150457529684395 ] } },
{ "type": "Feature", "properties": { "site_id": "data/raw/naip_tiles_pc_4band_v2/site_0275.tif", "farm_name": "Dream Journey Inc.", "county": "Somerset", "species_group": "broiler", "animal_type": "chickens_not_laying_hens", "headcount": 152000, "buildings": 7, "floor_area_m2": 17773.0, "registry_point_distance_m": 166.0, "lat": 37.999732, "lon": -75.647542, "maps_url": "https://www.google.com/maps/@37.999732,-75.647542,600m/data=!3m1!1e3" }, "geometry": { "type": "Point", "coordinates": [ -75.647542075605216, 37.999732052201793 ] } },
{ "type": "Feature", "properties": { "site_id": "data/raw/naip_tiles_pc_4band_v2/site_0053.tif", "farm_name": "M&C Vessey Farm, Inc/Cuckoo's Nest Farm", "county": "Somerset", "species_group": "broiler", "animal_type": "chickens_not_laying_hens", "headcount": 240000, "buildings": 7, "floor_area_m2": 15876.0, "registry_point_distance_m": 525.0, "lat": 38.057887, "lon": -75.650733, "maps_url": "https://www.google.com/maps/@38.057887,-75.650733,600m/data=!3m1!1e3" }, "geometry": { "type": "Point", "coordinates": [ -75.650733359803283, 38.057886725405034 ] } },
{ "type": "Feature", "properties": { "site_id": "data/raw/naip_tiles_pc_4band_v2/site_0384.tif", "farm_name": "Clifton G Taylor III/Third and Dead End Farms", "county": "Somerset", "species_group": "broiler", "animal_type": "chickens_not_laying_hens", "headcount": 108000, "buildings": 7, "floor_area_m2": 11964.0, "registry_point_distance_m": 1133.0, "lat": 38.077186, "lon": -75.70693, "maps_url": "https://www.google.com/maps/@38.077186,-75.70693,600m/data=!3m1!1e3" }, "geometry": { "type": "Point", "coordinates": [ -75.706929820603548, 38.077186083013764 ] } },
{ "type": "Feature", "properties": { "site_id": "data/raw/naip_tiles_pc_4band_v2/site_0413.tif", "farm_name": "Daniels Poultry Farm, Inc./Stanley A. Daniels Jr.", "county": "Somerset", "species_group": "broiler", "animal_type": "chickens_not_laying_hens", "headcount": 160000, "buildings": 7, "floor_area_m2": 19613.0, "registry_point_distance_m": 327.0, "lat": 38.074378, "lon": -75.655607, "maps_url": "https://www.google.com/maps/@38.074378,-75.655607,600m/data=!3m1!1e3" }, "geometry": { "type": "Point", "coordinates": [ -75.655607332597171, 38.074377751290825 ] } },
{ "type": "Feature", "properties": { "site_id": "data/raw/naip_tiles_pc_4band_v2/site_0057.tif", "farm_name": "Howard Overholt/Honeysuckle Farm Inc.", "county": "Somerset", "species_group": "broiler", "animal_type": "chickens_not_laying_hens", "headcount": 216000, "buildings": 7, "floor_area_m2": 17201.0, "registry_point_distance_m": 107.0, "lat": 38.080307, "lon": -75.645235, "maps_url": "https://www.google.com/maps/@38.080307,-75.645235,600m/data=!3m1!1e3" }, "geometry": { "type": "Point", "coordinates": [ -75.645234819544442, 38.08030745823973 ] } },
{ "type": "Feature", "properties": { "site_id": "data/raw/naip_tiles_pc_4band_v2/site_0106.tif", "farm_name": "Tuan Do/Tuan Farm", "county": "Somerset", "species_group": "broiler", "animal_type": "chickens_not_laying_hens", "headcount": 249000, "buildings": 6, "floor_area_m2": 16294.0, "registry_point_distance_m": 104.0, "lat": 38.218521, "lon": -75.64395, "maps_url": "https://www.google.com/maps/@38.218521,-75.64395,600m/data=!3m1!1e3" }, "geometry": { "type": "Point", "coordinates": [ -75.643950214135529, 38.218520803476402 ] } },
{ "type": "Feature", "properties": { "site_id": "data/raw/naip_tiles_pc_4band_v2/site_0175.tif", "farm_name": "Minh Vinh", "county": "Worcester", "species_group": "broiler", "animal_type": "chickens_not_laying_hens", "headcount": 595000, "buildings": 6, "floor_area_m2": 12315.0, "registry_point_distance_m": 504.0, "lat": 38.187277, "lon": -75.553099, "maps_url": "https://www.google.com/maps/@38.187277,-75.553099,600m/data=!3m1!1e3" }, "geometry": { "type": "Point", "coordinates": [ -75.5530992825, 38.187277084224085 ] } },
{ "type": "Feature", "properties": { "site_id": "data/raw/naip_tiles_pc_4band_v2/site_0375.tif", "farm_name": "Martin Vitelli/Knew Farm", "county": "Somerset", "species_group": "broiler", "animal_type": "chickens_not_laying_hens", "headcount": 180000, "buildings": 6, "floor_area_m2": 15337.0, "registry_point_distance_m": 242.0, "lat": 38.176171, "lon": -75.601102, "maps_url": "https://www.google.com/maps/@38.176171,-75.601102,600m/data=!3m1!1e3" }, "geometry": { "type": "Point", "coordinates": [ -75.601102048884258, 38.176170590786057 ] } },
{ "type": "Feature", "properties": { "site_id": "data/raw/naip_tiles_pc_4band_v2/site_0230.tif", "farm_name": "Scot Beauchamp/Home and Dad's Farms", "county": "Somerset", "species_group": "broiler", "animal_type": "chickens_not_laying_hens", "headcount": 128100, "buildings": 6, "floor_area_m2": 10340.0, "registry_point_distance_m": 986.0, "lat": 38.116849, "lon": -75.610301, "maps_url": "https://www.google.com/maps/@38.116849,-75.610301,600m/data=!3m1!1e3" }, "geometry": { "type": "Point", "coordinates": [ -75.610300916947708, 38.116848988024927 ] } },
{ "type": "Feature", "properties": { "site_id": "data/raw/naip_tiles_pc_4band_v2/site_0399.tif", "farm_name": "Jagomar Farms LLC/Marissa Benjamin", "county": "Somerset", "species_group": "broiler", "animal_type": "chickens_not_laying_hens", "headcount": 312000, "buildings": 6, "floor_area_m2": 21878.0, "registry_point_distance_m": 177.0, "lat": 38.232827, "lon": -75.64767, "maps_url": "https://www.google.com/maps/@38.232827,-75.64767,600m/data=!3m1!1e3" }, "geometry": { "type": "Point", "coordinates": [ -75.647670255003106, 38.232826867747093 ] } },
{ "type": "Feature", "properties": { "site_id": "data/raw/naip_tiles_pc_4band_v2/site_0034.tif", "farm_name": "David Hoffman", "county": "Somerset", "species_group": "broiler", "animal_type": "chickens_not_laying_hens", "headcount": 156400, "buildings": 6, "floor_area_m2": 14914.0, "registry_point_distance_m": 153.0, "lat": 38.091043, "lon": -75.585095, "maps_url": "https://www.google.com/maps/@38.091043,-75.585095,600m/data=!3m1!1e3" }, "geometry": { "type": "Point", "coordinates": [ -75.585094831032194, 38.091043153520388 ] } },
{ "type": "Feature", "properties": { "site_id": "data/raw/naip_tiles_pc_4band_v2/site_0408.tif", "farm_name": "Duy Pham", "county": "Somerset", "species_group": "broiler", "animal_type": "chickens_not_laying_hens", "headcount": 207000, "buildings": 6, "floor_area_m2": 15356.0, "registry_point_distance_m": 143.0, "lat": 38.215262, "lon": -75.647904, "maps_url": "https://www.google.com/maps/@38.215262,-75.647904,600m/data=!3m1!1e3" }, "geometry": { "type": "Point", "coordinates": [ -75.64790352487833, 38.215262257380587 ] } },
{ "type": "Feature", "properties": { "site_id": "data/raw/naip_tiles_pc_4band_v2/site_0041.tif", "farm_name": "Tracy Chan/Casa Grande Farm", "county": "Somerset", "species_group": "broiler", "animal_type": "chickens_not_laying_hens", "headcount": 190000, "buildings": 6, "floor_area_m2": 14815.0, "registry_point_distance_m": 126.0, "lat": 37.982253, "lon": -75.827703, "maps_url": "https://www.google.com/maps/@37.982253,-75.827703,600m/data=!3m1!1e3" }, "geometry": { "type": "Point", "coordinates": [ -75.827703310535142, 37.982252590635028 ] } },
{ "type": "Feature", "properties": { "site_id": "data/raw/naip_tiles_pc_4band_v2/site_0265.tif", "farm_name": "Phuong Tran/Blue Bonnet Farm", "county": "Wicomico", "species_group": "broiler", "animal_type": "chickens_not_laying_hens", "headcount": 110000, "buildings": 6, "floor_area_m2": 12132.0, "registry_point_distance_m": 1108.0, "lat": 38.292482, "lon": -75.640105, "maps_url": "https://www.google.com/maps/@38.292482,-75.640105,600m/data=!3m1!1e3" }, "geometry": { "type": "Point", "coordinates": [ -75.640104959482002, 38.292482448434122 ] } },
{ "type": "Feature", "properties": { "site_id": "data/raw/naip_tiles_pc_4band_v2/site_0247.tif", "farm_name": "Adam Stanley/Deathly Hollows", "county": "Somerset", "species_group": "unknown", "animal_type": "unknown", "headcount": 0, "buildings": 6, "floor_area_m2": 11630.0, "registry_point_distance_m": 96.0, "lat": 38.031108, "lon": -75.801158, "maps_url": "https://www.google.com/maps/@38.031108,-75.801158,600m/data=!3m1!1e3" }, "geometry": { "type": "Point", "coordinates": [ -75.801158408084106, 38.03110795547525 ] } },
{ "type": "Feature", "properties": { "site_id": "data/raw/naip_tiles_pc_4band_v2/site_0294.tif", "farm_name": "Justin Humphreys/Humphreys Farms, LLC", "county": "Somerset", "species_group": "broiler", "animal_type": "chickens_not_laying_hens", "headcount": 65000, "buildings": 5, "floor_area_m2": 7807.0, "registry_point_distance_m": 70.0, "lat": 38.175633, "lon": -75.631616, "maps_url": "https://www.google.com/maps/@38.175633,-75.631616,600m/data=!3m1!1e3" }, "geometry": { "type": "Point", "coordinates": [ -75.631616463231083, 38.175633371817604 ] } },
{ "type": "Feature", "properties": { "site_id": "data/raw/naip_tiles_pc_4band_v2/site_0099.tif", "farm_name": "Amy Tran/Wings and a Prayer Farm", "county": "Somerset", "species_group": "broiler", "animal_type": "chickens_not_laying_hens", "headcount": 123500, "buildings": 5, "floor_area_m2": 9804.0, "registry_point_distance_m": 119.0, "lat": 38.06146, "lon": -75.701258, "maps_url": "https://www.google.com/maps/@38.06146,-75.701258,600m/data=!3m1!1e3" }, "geometry": { "type": "Point", "coordinates": [ -75.701258363304618, 38.061460004669406 ] } },
{ "type": "Feature", "properties": { "site_id": "data/raw/naip_tiles_pc_4band_v2/site_0049.tif", "farm_name": "Barkat Farms, LLC", "county": "Somerset", "species_group": "broiler", "animal_type": "chickens_not_laying_hens", "headcount": 135000, "buildings": 5, "floor_area_m2": 12171.0, "registry_point_distance_m": 162.0, "lat": 38.223383, "lon": -75.623709, "maps_url": "https://www.google.com/maps/@38.223383,-75.623709,600m/data=!3m1!1e3" }, "geometry": { "type": "Point", "coordinates": [ -75.623709140330959, 38.223383317208338 ] } },
{ "type": "Feature", "properties": { "site_id": "data/raw/naip_tiles_pc_4band_v2/site_0202.tif", "farm_name": "Ghazanffer Ali", "county": "Somerset", "species_group": "broiler", "animal_type": "chickens_not_laying_hens", "headcount": 160000, "buildings": 5, "floor_area_m2": 11983.0, "registry_point_distance_m": 149.0, "lat": 38.225935, "lon": -75.600981, "maps_url": "https://www.google.com/maps/@38.225935,-75.600981,600m/data=!3m1!1e3" }, "geometry": { "type": "Point", "coordinates": [ -75.600981167893067, 38.225935459091822 ] } },
{ "type": "Feature", "properties": { "site_id": "data/raw/naip_tiles_pc_4band_v2/site_0050.tif", "farm_name": "James Randall Laird/Randy Laird Farm", "county": "Somerset", "species_group": "broiler", "animal_type": "chickens_not_laying_hens", "headcount": 72000, "buildings": 5, "floor_area_m2": 8678.0, "registry_point_distance_m": 271.0, "lat": 37.971966, "lon": -75.826099, "maps_url": "https://www.google.com/maps/@37.971966,-75.826099,600m/data=!3m1!1e3" }, "geometry": { "type": "Point", "coordinates": [ -75.826099365889135, 37.971966465362456 ] } },
{ "type": "Feature", "properties": { "site_id": "data/raw/naip_tiles_pc_4band_v2/site_0220.tif", "farm_name": "Kevin Pham/Danny&Kenny Farm", "county": "Somerset", "species_group": "broiler", "animal_type": "chickens_not_laying_hens", "headcount": 96000, "buildings": 4, "floor_area_m2": 7322.0, "registry_point_distance_m": 116.0, "lat": 38.069601, "lon": -75.656183, "maps_url": "https://www.google.com/maps/@38.069601,-75.656183,600m/data=!3m1!1e3" }, "geometry": { "type": "Point", "coordinates": [ -75.656183160171267, 38.069600898801838 ] } },
{ "type": "Feature", "properties": { "site_id": "data/raw/naip_tiles_pc_4band_v2/site_0214.tif", "farm_name": "Jason Dryden Farms Inc. c/o Jason Dryden/Pop Pop Elmo Farm", "county": "Somerset", "species_group": "broiler", "animal_type": "chickens_not_laying_hens", "headcount": 167000, "buildings": 4, "floor_area_m2": 10225.0, "registry_point_distance_m": 184.0, "lat": 38.06499, "lon": -75.657863, "maps_url": "https://www.google.com/maps/@38.06499,-75.657863,600m/data=!3m1!1e3" }, "geometry": { "type": "Point", "coordinates": [ -75.657862847429115, 38.064990042256568 ] } },
{ "type": "Feature", "properties": { "site_id": "data/raw/naip_tiles_pc_4band_v2/site_0198.tif", "farm_name": "Oscar T. Rentschler Jr./Black Lab Acres", "county": "Somerset", "species_group": "broiler", "animal_type": "chickens_not_laying_hens", "headcount": 142000, "buildings": 4, "floor_area_m2": 8894.0, "registry_point_distance_m": 36.0, "lat": 38.192105, "lon": -75.60567, "maps_url": "https://www.google.com/maps/@38.192105,-75.60567,600m/data=!3m1!1e3" }, "geometry": { "type": "Point", "coordinates": [ -75.605670487969476, 38.192104534856405 ] } },
{ "type": "Feature", "properties": { "site_id": "data/raw/naip_tiles_pc_4band_v2/site_0385.tif", "farm_name": "Ladian Farms, LLC", "county": "Somerset", "species_group": "broiler", "animal_type": "chickens_not_laying_hens", "headcount": 142000, "buildings": 4, "floor_area_m2": 11087.0, "registry_point_distance_m": 155.0, "lat": 38.220762, "lon": -75.583828, "maps_url": "https://www.google.com/maps/@38.220762,-75.583828,600m/data=!3m1!1e3" }, "geometry": { "type": "Point", "coordinates": [ -75.583828096701097, 38.220761736334225 ] } },
{ "type": "Feature", "properties": { "site_id": "data/raw/naip_tiles_pc_4band_v2/site_0387.tif", "farm_name": "George and Brenda Young Chicks Farm", "county": "Worcester", "species_group": "broiler", "animal_type": "chickens_not_laying_hens", "headcount": 60120, "buildings": 4, "floor_area_m2": 8596.0, "registry_point_distance_m": 538.0, "lat": 38.063154, "lon": -75.645412, "maps_url": "https://www.google.com/maps/@38.063154,-75.645412,600m/data=!3m1!1e3" }, "geometry": { "type": "Point", "coordinates": [ -75.645412062938618, 38.063153518027761 ] } },
{ "type": "Feature", "properties": { "site_id": "data/raw/naip_tiles_pc_4band_v2/site_0269.tif", "farm_name": "Ronnie Schrock/Breezewood Poultry Farm", "county": "Somerset", "species_group": "broiler", "animal_type": "chickens_not_laying_hens", "headcount": 50000, "buildings": 4, "floor_area_m2": 7177.0, "registry_point_distance_m": 636.0, "lat": 38.098348, "lon": -75.690628, "maps_url": "https://www.google.com/maps/@38.098348,-75.690628,600m/data=!3m1!1e3" }, "geometry": { "type": "Point", "coordinates": [ -75.690628291836447, 38.098348300677358 ] } },
{ "type": "Feature", "properties": { "site_id": "data/raw/naip_tiles_pc_4band_v2/site_0256.tif", "farm_name": "Adam Stanley Farm", "county": "Somerset", "species_group": "broiler", "animal_type": "chickens_not_laying_hens", "headcount": 46000, "buildings": 4, "floor_area_m2": 7028.0, "registry_point_distance_m": 329.0, "lat": 38.026627, "lon": -75.819002, "maps_url": "https://www.google.com/maps/@38.026627,-75.819002,600m/data=!3m1!1e3" }, "geometry": { "type": "Point", "coordinates": [ -75.819001674612707, 38.026627299362268 ] } },
{ "type": "Feature", "properties": { "site_id": "data/raw/naip_tiles_pc_4band_v2/site_0033.tif", "farm_name": "Eric Bedsworth", "county": "Somerset", "species_group": "broiler", "animal_type": "chickens_not_laying_hens", "headcount": 77600, "buildings": 4, "floor_area_m2": 5389.0, "registry_point_distance_m": 114.0, "lat": 38.21104, "lon": -75.78253, "maps_url": "https://www.google.com/maps/@38.21104,-75.78253,600m/data=!3m1!1e3" }, "geometry": { "type": "Point", "coordinates": [ -75.782530086191272, 38.211039964507599 ] } },
{ "type": "Feature", "properties": { "site_id": "data/raw/naip_tiles_pc_4band_v2/site_0104.tif", "farm_name": "Chaudhry Farm, LLC/Pervaiz Akhtar", "county": "Somerset", "species_group": "broiler", "animal_type": "chickens_not_laying_hens", "headcount": 146000, "buildings": 4, "floor_area_m2": 9017.0, "registry_point_distance_m": 151.0, "lat": 37.992499, "lon": -75.8156, "maps_url": "https://www.google.com/maps/@37.992499,-75.8156,600m/data=!3m1!1e3" }, "geometry": { "type": "Point", "coordinates": [ -75.815599972916146, 37.992498919690654 ] } },
{ "type": "Feature", "properties": { "site_id": "data/raw/naip_tiles_pc_4band_v2/site_0103.tif", "farm_name": "Chaudhry Farm, LLC/Pervaiz Akhtar", "county": "Somerset", "species_group": "broiler", "animal_type": "chickens_not_laying_hens", "headcount": 92400, "buildings": 4, "floor_area_m2": 8723.0, "registry_point_distance_m": 186.0, "lat": 38.066636, "lon": -75.692074, "maps_url": "https://www.google.com/maps/@38.066636,-75.692074,600m/data=!3m1!1e3" }, "geometry": { "type": "Point", "coordinates": [ -75.692074025043269, 38.066635520532067 ] } },
{ "type": "Feature", "properties": { "site_id": "data/raw/naip_tiles_pc_4band_v2/site_0353.tif", "farm_name": "William Beauchamp, III", "county": "Worcester", "species_group": "broiler", "animal_type": "chickens_not_laying_hens", "headcount": 70000, "buildings": 3, "floor_area_m2": 5610.0, "registry_point_distance_m": 224.0, "lat": 38.081456, "lon": -75.617903, "maps_url": "https://www.google.com/maps/@38.081456,-75.617903,600m/data=!3m1!1e3" }, "geometry": { "type": "Point", "coordinates": [ -75.617902928883112, 38.081456335536281 ] } },
{ "type": "Feature", "properties": { "site_id": "data/raw/naip_tiles_pc_4band_v2/site_0166.tif", "farm_name": "Cobb Heritage LLC/Pocomoke Farm #4", "county": "Worcester", "species_group": "poultry_other", "animal_type": "laying_hens_dry_manure", "headcount": 61500, "buildings": 3, "floor_area_m2": 4621.0, "registry_point_distance_m": 227.0, "lat": 38.165179, "lon": -75.539693, "maps_url": "https://www.google.com/maps/@38.165179,-75.539693,600m/data=!3m1!1e3" }, "geometry": { "type": "Point", "coordinates": [ -75.539692734648028, 38.165179085386605 ] } },
{ "type": "Feature", "properties": { "site_id": "data/raw/naip_tiles_pc_4band_v2/site_0395.tif", "farm_name": "Kathy A. Green/Fulton Acres Farm", "county": "Somerset", "species_group": "broiler", "animal_type": "chickens_not_laying_hens", "headcount": 78000, "buildings": 3, "floor_area_m2": 6034.0, "registry_point_distance_m": 106.0, "lat": 38.157959, "lon": -75.665111, "maps_url": "https://www.google.com/maps/@38.157959,-75.665111,600m/data=!3m1!1e3" }, "geometry": { "type": "Point", "coordinates": [ -75.665111441464958, 38.157958639985985 ] } },
{ "type": "Feature", "properties": { "site_id": "data/raw/naip_tiles_pc_4band_v2/site_0400.tif", "farm_name": "Jason Dryden Farms, Inc./William Jason Dryden", "county": "Somerset", "species_group": "broiler", "animal_type": "chickens_not_laying_hens", "headcount": 115000, "buildings": 3, "floor_area_m2": 9648.0, "registry_point_distance_m": 228.0, "lat": 38.070259, "lon": -75.660516, "maps_url": "https://www.google.com/maps/@38.070259,-75.660516,600m/data=!3m1!1e3" }, "geometry": { "type": "Point", "coordinates": [ -75.660516364341831, 38.07025870370169 ] } },
{ "type": "Feature", "properties": { "site_id": "data/raw/naip_tiles_pc_4band_v2/site_0365.tif", "farm_name": "Rantz William Purcell/RWP Farm", "county": "Somerset", "species_group": "broiler", "animal_type": "chickens_not_laying_hens", "headcount": 120000, "buildings": 3, "floor_area_m2": 7400.0, "registry_point_distance_m": 715.0, "lat": 38.151587, "lon": -75.672819, "maps_url": "https://www.google.com/maps/@38.151587,-75.672819,600m/data=!3m1!1e3" }, "geometry": { "type": "Point", "coordinates": [ -75.672818942037736, 38.151586635849846 ] } },
{ "type": "Feature", "properties": { "site_id": "data/raw/naip_tiles_pc_4band_v2/site_0251.tif", "farm_name": "Luan Ngoc Nguyen", "county": "Somerset", "species_group": "broiler", "animal_type": "chickens_not_laying_hens", "headcount": 156000, "buildings": 3, "floor_area_m2": 5663.0, "registry_point_distance_m": 81.0, "lat": 38.210313, "lon": -75.583153, "maps_url": "https://www.google.com/maps/@38.210313,-75.583153,600m/data=!3m1!1e3" }, "geometry": { "type": "Point", "coordinates": [ -75.583152523043239, 38.210312959319239 ] } },
{ "type": "Feature", "properties": { "site_id": "data/raw/naip_tiles_pc_4band_v2/site_0197.tif", "farm_name": "James Byron Beauchamp", "county": "Somerset", "species_group": "broiler", "animal_type": "chickens_not_laying_hens", "headcount": 95000, "buildings": 3, "floor_area_m2": 4327.0, "registry_point_distance_m": 312.0, "lat": 38.129609, "lon": -75.577881, "maps_url": "https://www.google.com/maps/@38.129609,-75.577881,600m/data=!3m1!1e3" }, "geometry": { "type": "Point", "coordinates": [ -75.577881444406785, 38.129608506897739 ] } },
{ "type": "Feature", "properties": { "site_id": "data/raw/naip_tiles_pc_4band_v2/site_0330.tif", "farm_name": "Donald Howard/Donald Howard Farm", "county": "Somerset", "species_group": "broiler", "animal_type": "chickens_not_laying_hens", "headcount": 75000, "buildings": 3, "floor_area_m2": 4117.0, "registry_point_distance_m": 141.0, "lat": 38.020029, "lon": -75.80832, "maps_url": "https://www.google.com/maps/@38.020029,-75.80832,600m/data=!3m1!1e3" }, "geometry": { "type": "Point", "coordinates": [ -75.808320254785428, 38.020029466794306 ] } },
{ "type": "Feature", "properties": { "site_id": "data/raw/naip_tiles_pc_4band_v2/site_0287.tif", "farm_name": "Ronnie Schrock Inc./Mason Farms", "county": "Somerset", "species_group": "broiler", "animal_type": "chickens_not_laying_hens", "headcount": 160000, "buildings": 3, "floor_area_m2": 5024.0, "registry_point_distance_m": 203.0, "lat": 38.102327, "lon": -75.69728, "maps_url": "https://www.google.com/maps/@38.102327,-75.69728,600m/data=!3m1!1e3" }, "geometry": { "type": "Point", "coordinates": [ -75.697279672569266, 38.102326867737204 ] } },
{ "type": "Feature", "properties": { "site_id": "data/raw/naip_tiles_pc_4band_v2/site_0101.tif", "farm_name": "S.H.L. Anderson Inc.", "county": "Somerset", "species_group": "broiler", "animal_type": "chickens_not_laying_hens", "headcount": 65400, "buildings": 3, "floor_area_m2": 6562.0, "registry_point_distance_m": 38.0, "lat": 38.196729, "lon": -75.804509, "maps_url": "https://www.google.com/maps/@38.196729,-75.804509,600m/data=!3m1!1e3" }, "geometry": { "type": "Point", "coordinates": [ -75.804508580371177, 38.196729317546698 ] } },
{ "type": "Feature", "properties": { "site_id": "data/raw/naip_tiles_pc_4band_v2/site_0250.tif", "farm_name": "Justin Humphreys/Rizzi's Roost", "county": "Somerset", "species_group": "broiler", "animal_type": "chickens_not_laying_hens", "headcount": 69000, "buildings": 3, "floor_area_m2": 4759.0, "registry_point_distance_m": 321.0, "lat": 38.144502, "lon": -75.658058, "maps_url": "https://www.google.com/maps/@38.144502,-75.658058,600m/data=!3m1!1e3" }, "geometry": { "type": "Point", "coordinates": [ -75.658058009146757, 38.14450206854378 ] } },
{ "type": "Feature", "properties": { "site_id": "data/raw/naip_tiles_pc_4band_v2/site_0031.tif", "farm_name": "Gerard Dumsha/Go Away Acres Farm Inc.", "county": "Somerset", "species_group": "broiler", "animal_type": "chickens_not_laying_hens", "headcount": 98800, "buildings": 3, "floor_area_m2": 5569.0, "registry_point_distance_m": 237.0, "lat": 38.177666, "lon": -75.679896, "maps_url": "https://www.google.com/maps/@38.177666,-75.679896,600m/data=!3m1!1e3" }, "geometry": { "type": "Point", "coordinates": [ -75.679895764980586, 38.177666334804677 ] } },
{ "type": "Feature", "properties": { "site_id": "data/raw/naip_tiles_pc_4band_v2/site_0042.tif", "farm_name": "William Michael Dryden", "county": "Somerset", "species_group": "broiler", "animal_type": "chickens_not_laying_hens", "headcount": 110000, "buildings": 3, "floor_area_m2": 5948.0, "registry_point_distance_m": 64.0, "lat": 38.068251, "lon": -75.627174, "maps_url": "https://www.google.com/maps/@38.068251,-75.627174,600m/data=!3m1!1e3" }, "geometry": { "type": "Point", "coordinates": [ -75.627173664749279, 38.068251183206797 ] } },
{ "type": "Feature", "properties": { "site_id": "data/raw/naip_tiles_pc_4band_v2/site_0178.tif", "farm_name": "Beverly Farm Partnership/ Arthur Shettle", "county": "Worcester", "species_group": "broiler", "animal_type": "chickens_not_laying_hens", "headcount": 75000, "buildings": 2, "floor_area_m2": 3568.0, "registry_point_distance_m": 338.0, "lat": 38.009353, "lon": -75.616047, "maps_url": "https://www.google.com/maps/@38.009353,-75.616047,600m/data=!3m1!1e3" }, "geometry": { "type": "Point", "coordinates": [ -75.616047143026947, 38.009353016186331 ] } },
{ "type": "Feature", "properties": { "site_id": "data/raw/naip_tiles_pc_4band_v2/site_0045.tif", "farm_name": "Brian Laird Farm", "county": "Somerset", "species_group": "broiler", "animal_type": "chickens_not_laying_hens", "headcount": 77500, "buildings": 2, "floor_area_m2": 2719.0, "registry_point_distance_m": 698.0, "lat": 38.191345, "lon": -75.781028, "maps_url": "https://www.google.com/maps/@38.191345,-75.781028,600m/data=!3m1!1e3" }, "geometry": { "type": "Point", "coordinates": [ -75.78102808375678, 38.191344773872103 ] } },
{ "type": "Feature", "properties": { "site_id": "data/raw/naip_tiles_pc_4band_v2/site_0324.tif", "farm_name": "Cam Tu Pham/P&N Farm, LLC", "county": "Wicomico", "species_group": "broiler", "animal_type": "chickens_not_laying_hens", "headcount": 304000, "buildings": 2, "floor_area_m2": 1187.0, "registry_point_distance_m": 4764.0, "lat": 38.288537, "lon": -75.741719, "maps_url": "https://www.google.com/maps/@38.288537,-75.741719,600m/data=!3m1!1e3" }, "geometry": { "type": "Point", "coordinates": [ -75.741718720403114, 38.288537056296661 ] } },
{ "type": "Feature", "properties": { "site_id": "data/raw/naip_tiles_pc_4band_v2/site_0168.tif", "farm_name": "David Nuse Sr.", "county": "Worcester", "species_group": "broiler", "animal_type": "chickens_not_laying_hens", "headcount": 75000, "buildings": 1, "floor_area_m2": 750.0, "registry_point_distance_m": 2155.0, "lat": 38.277786, "lon": -75.616436, "maps_url": "https://www.google.com/maps/@38.277786,-75.616436,600m/data=!3m1!1e3" }, "geometry": { "type": "Point", "coordinates": [ -75.616435608755225, 38.277786084651545 ] } },
{ "type": "Feature", "properties": { "site_id": "data/raw/naip_tiles_pc_4band_v2/site_0038.tif", "farm_name": "Roy Johnson Ring, III/Ring Farms", "county": "Somerset", "species_group": "broiler", "animal_type": "chickens_not_laying_hens", "headcount": 38000, "buildings": 1, "floor_area_m2": 631.0, "registry_point_distance_m": 2316.0, "lat": 38.109, "lon": -75.745819, "maps_url": "https://www.google.com/maps/@38.109,-75.745819,600m/data=!3m1!1e3" }, "geometry": { "type": "Point", "coordinates": [ -75.745819293705324, 38.109000403874411 ] } },
{ "type": "Feature", "properties": { "site_id": "data/raw/naip_tiles_pc_4band_v2/site_0270.tif", "farm_name": "QuangTran Farm", "county": "Somerset", "species_group": "broiler", "animal_type": "chickens_not_laying_hens", "headcount": 210000, "buildings": 1, "floor_area_m2": 2477.0, "registry_point_distance_m": 255.0, "lat": 38.213375, "lon": -75.650287, "maps_url": "https://www.google.com/maps/@38.213375,-75.650287,600m/data=!3m1!1e3" }, "geometry": { "type": "Point", "coordinates": [ -75.650287200827407, 38.213374667678245 ] } }
]
}
