{
"type": "FeatureCollection",
"name": "full_registry_sam_lagoon_detections",
"crs": { "type": "name", "properties": { "name": "urn:ogc:def:crs:OGC:1.3:CRS84" } },
"features": [
{ "type": "Feature", "properties": { "class_name": "manure_lagoon", "detector": "classical_cv_candidates+sam_refined+barn_proximity", "farm_name": "James Donald Dulin", "county": "Caroline", "headcount": 57600, "area_px": 654, "area_m2": 3010.2, "solidity": 0.95, "sam_score": 0.943, "tile": "site_0069.tif", "candidate_source": "tight", "distance_to_barn_m": 378.6, "qa_status": "visually_confirmed" }, "geometry": { "type": "Polygon", "coordinates": [ [ [ -75.790159566260883, 38.787189105132448 ], [ -75.790340148060594, 38.787189105132448 ], [ -75.790407866235483, 38.787121386957558 ], [ -75.790588448035194, 38.786669932458281 ], [ -75.790611020760167, 38.78642163248368 ], [ -75.790588448035194, 38.786353914308791 ], [ -75.790498157135346, 38.786286196133894 ], [ -75.790385293510525, 38.786263623408935 ], [ -75.790295002610677, 38.786331341583825 ], [ -75.790091848085993, 38.787031096057703 ], [ -75.790091848085993, 38.787143959682524 ], [ -75.790159566260883, 38.787189105132448 ] ] ] } },
{ "type": "Feature", "properties": { "class_name": "manure_lagoon", "detector": "classical_cv_candidates+sam_refined+barn_proximity", "farm_name": "Roland Todd/Roland's Roaster's", "county": "Dorchester", "headcount": 159900, "area_px": 2722, "area_m2": 12565.3, "solidity": 0.915, "sam_score": 0.796, "tile": "site_0146.tif", "candidate_source": "tight", "distance_to_barn_m": 724.6, "qa_status": "visually_confirmed" }, "geometry": { "type": "Polygon", "coordinates": [ [ [ -75.844420004095298, 38.686212623885638 ], [ -75.844352375845546, 38.686099910136051 ], [ -75.843969149096949, 38.686144995635885 ], [ -75.84387897809728, 38.686032281886291 ], [ -75.84275184060138, 38.685739226137365 ], [ -75.842436242102536, 38.685739226137365 ], [ -75.842255900103183, 38.686077367386133 ], [ -75.84236861385277, 38.68619008113572 ], [ -75.842255900103183, 38.68628025213539 ], [ -75.842346071102853, 38.68637042313506 ], [ -75.842706755101545, 38.68637042313506 ], [ -75.844081862846537, 38.686753649883663 ], [ -75.844284747595793, 38.686731107133745 ], [ -75.844420004095298, 38.686212623885638 ] ] ] } },
{ "type": "Feature", "properties": { "class_name": "manure_lagoon", "detector": "classical_cv_candidates+sam_refined+barn_proximity", "farm_name": "Jabar Rahim", "county": "Dorchester", "headcount": 297000, "area_px": 819, "area_m2": 3812.5, "solidity": 0.922, "sam_score": 0.884, "tile": "site_0225.tif", "candidate_source": "tight", "distance_to_barn_m": 494.3, "qa_status": "confirmed_false_positive_river_fragment" }, "geometry": { "type": "Polygon", "coordinates": [ [ [ -75.989818902157694, 38.495161226817565 ], [ -75.989796421616845, 38.495093785195017 ], [ -75.989728979994297, 38.495071304654175 ], [ -75.989526655126667, 38.49482401870484 ], [ -75.989256888636476, 38.49482401870484 ], [ -75.989099524850545, 38.494958901949929 ], [ -75.989009602687148, 38.494981382490778 ], [ -75.98891968052375, 38.494936421409079 ], [ -75.988829758360367, 38.494981382490778 ], [ -75.988987122146298, 38.495228668440113 ], [ -75.989234408095626, 38.495453473848599 ], [ -75.989459213504119, 38.49543099330775 ], [ -75.989773941075995, 38.495251148980962 ], [ -75.989818902157694, 38.495161226817565 ] ] ] } },
{ "type": "Feature", "properties": { "class_name": "manure_lagoon", "detector": "classical_cv_candidates+sam_refined+barn_proximity", "farm_name": "Paul Aaron Hutchison Sr./Home Farm", "county": "Talbot", "headcount": 86200, "area_px": 901, "area_m2": 4056.3, "solidity": 0.918, "sam_score": 0.801, "tile": "site_0265.tif", "candidate_source": "tight", "distance_to_barn_m": 1087.0, "qa_status": "uncertain_needs_review" }, "geometry": { "type": "Polygon", "coordinates": [ [ [ -76.015922075033018, 38.805384859466614 ], [ -76.016170460516179, 38.805249376475793 ], [ -76.01641884599934, 38.805249376475793 ], [ -76.016780133974848, 38.805136473983453 ], [ -76.016847875470262, 38.805023571491105 ], [ -76.016780133974848, 38.804933249497225 ], [ -76.016802714473314, 38.804730025011004 ], [ -76.016667231482501, 38.804684864014064 ], [ -76.015922075033018, 38.804865508001818 ], [ -76.015922075033018, 38.805384859466614 ] ] ] } },
{ "type": "Feature", "properties": { "class_name": "manure_lagoon", "detector": "classical_cv_candidates+sam_refined+barn_proximity", "farm_name": "Paul Aaron Hutchison Sr./Home Farm", "county": "Talbot", "headcount": 86200, "area_px": 1881, "area_m2": 9056.6, "solidity": 0.863, "sam_score": 0.612, "tile": "site_0265.tif", "candidate_source": "tight", "distance_to_barn_m": 1137.2, "qa_status": "uncertain_needs_review" }, "geometry": { "type": "Polygon", "coordinates": [ [ [ -76.016712392479434, 38.804752605509471 ], [ -76.017141421950356, 38.805271956974266 ], [ -76.017480129427398, 38.805181634980386 ], [ -76.017547870922797, 38.804978410494165 ], [ -76.018247866375347, 38.804752605509471 ], [ -76.018315607870747, 38.804571961521724 ], [ -76.018405929864628, 38.804639703017131 ], [ -76.018428510363094, 38.804210673546216 ], [ -76.018360768867694, 38.804165512549275 ], [ -76.0182027053784, 38.804278415041622 ], [ -76.017999480892186, 38.804255834543149 ], [ -76.017028519458009, 38.80454938102325 ], [ -76.016712392479434, 38.804752605509471 ] ] ] } },
{ "type": "Feature", "properties": { "class_name": "manure_lagoon", "detector": "classical_cv_candidates+sam_refined+barn_proximity", "farm_name": "Paul Aaron Hutchison Sr./Home Farm", "county": "Talbot", "headcount": 86200, "area_px": 2448, "area_m2": 11339.7, "solidity": 0.912, "sam_score": 0.867, "tile": "site_0265.tif", "candidate_source": "tight", "distance_to_barn_m": 638.1, "qa_status": "uncertain_needs_review" }, "geometry": { "type": "Polygon", "coordinates": [ [ [ -76.019309149803391, 38.809833217665037 ], [ -76.019128505815644, 38.808591290249232 ], [ -76.018541412855441, 38.80870419274158 ], [ -76.017705934412078, 38.809065480717088 ], [ -76.017931739396772, 38.809381607695656 ], [ -76.018270446873814, 38.809584832181876 ], [ -76.019128505815644, 38.809697734674224 ], [ -76.019241408307991, 38.809878378661978 ], [ -76.019309149803391, 38.809833217665037 ] ] ] } },
{ "type": "Feature", "properties": { "class_name": "manure_lagoon", "detector": "classical_cv_candidates+sam_refined+barn_proximity", "farm_name": "Hoa Tran/Morning Sun LLC", "county": "Wicomico", "headcount": 98000, "area_px": 457, "area_m2": 2026.1, "solidity": 0.949, "sam_score": 0.94, "tile": "site_0048.tif", "candidate_source": "tight", "distance_to_barn_m": null, "qa_status": "visually_confirmed" }, "geometry": { "type": "Polygon", "coordinates": [ [ [ -75.531147414980623, 38.297027020085764 ], [ -75.531124991964973, 38.296825212944931 ], [ -75.530564416573768, 38.296757943897987 ], [ -75.530385032448578, 38.29678036691363 ], [ -75.530407455464228, 38.297027020085764 ], [ -75.530923184824132, 38.297094289132708 ], [ -75.531102568949322, 38.297094289132708 ], [ -75.531147414980623, 38.297027020085764 ] ] ] } }
]
}
