{
  "type": "FeatureCollection",
  "features": [
    {
      "type": "Feature",
      "geometry": {
        "type": "Polygon",
        "coordinates": [
          [
            [
              -75.76631974719452,
              38.66822692033908
            ],
            [
              -75.76679294600953,
              38.669105718138404
            ],
            [
              -75.76749147759361,
              38.669263451076745
            ],
            [
              -75.76830267556223,
              38.66912825141531
            ],
            [
              -75.7694068061306,
              38.66928598435365
            ],
            [
              -75.76994760477633,
              38.66897051847697
            ],
            [
              -75.7706010698066,
              38.66901558503078
            ],
            [
              -75.77093906896019,
              38.66874518570791
            ],
            [
              -75.77188546659022,
              38.66858745276957
            ],
            [
              -75.7714122677752,
              38.66818185378527
            ],
            [
              -75.77044333686825,
              38.66806918740074
            ],
            [
              -75.77006027116086,
              38.668204387062175
            ],
            [
              -75.766680279625,
              38.66802412084693
            ],
            [
              -75.76631974719452,
              38.66822692033908
            ]
          ]
        ]
      },
      "properties": {
        "class_name": "manure_lagoon",
        "detector": "classical_cv_candidates+sam_refined",
        "farm_name": "Waqar Ahmed /Emaan and Eshal Farm LLC (New Construction)",
        "county": "Dorchester",
        "headcount": 352000,
        "area_px": 10406,
        "solidity": 0.908,
        "sam_score": 0.977,
        "tile": "site_04.tif"
      }
    },
    {
      "type": "Feature",
      "geometry": {
        "type": "Polygon",
        "coordinates": [
          [
            [
              -75.85373362371085,
              38.8030816222737
            ],
            [
              -75.85423032179752,
              38.80335254850279
            ],
            [
              -75.85420774461176,
              38.80319450820249
            ],
            [
              -75.85508825485628,
              38.80319450820249
            ],
            [
              -75.85583330198627,
              38.80287842760188
            ],
            [
              -75.85583330198627,
              38.80278811885886
            ],
            [
              -75.85572041605748,
              38.802742964487344
            ],
            [
              -75.855765570429,
              38.802584924187045
            ],
            [
              -75.85538175827112,
              38.802020494543115
            ],
            [
              -75.85526887234234,
              38.801975340171595
            ],
            [
              -75.85499794611326,
              38.8021333804719
            ],
            [
              -75.85483990581295,
              38.801975340171595
            ],
            [
              -75.85395939556842,
              38.80251719262977
            ],
            [
              -75.85373362371085,
              38.8030816222737
            ]
          ]
        ]
      },
      "properties": {
        "class_name": "manure_lagoon",
        "detector": "classical_cv_candidates+sam_refined",
        "farm_name": "Christopher Both",
        "county": "Caroline",
        "headcount": 315000,
        "area_px": 3584,
        "solidity": 0.888,
        "sam_score": 0.903,
        "tile": "site_09.tif"
      }
    }
  ]
}